{
  "type": "FeatureCollection",
  "features": [
    {
      "type": "Feature",
      "properties": {
        "norad_id": 36083,
        "name": "IRIDIUM 33 DEB",
        "group": "iridium-33-debris",
        "lat": 68.88690010537528,
        "lon": -158.84183712156255,
        "alt_km": 739.5727725764445,
        "timestamp": "2025-12-20T18:51:32.098691+00:00",
        "meta_object_name": "IRIDIUM 33 DEB",
        "meta_object_id": "1997-051VQ",
        "meta_epoch": "2025-12-16T21:09:41.480640",
        "meta_mean_motion": 14.43222397,
        "meta_eccentricity": 0.00256692,
        "meta_inclination": 86.3437,
        "meta_ra_of_asc_node": 32.3703,
        "meta_arg_of_pericenter": 208.6135,
        "meta_mean_anomaly": 151.3659,
        "meta_ephemeris_type": 0,
        "meta_classification_type": "U",
        "meta_norad_cat_id": 36083,
        "meta_element_set_no": 999,
        "meta_rev_at_epoch": 85509,
        "meta_bstar": 0.00040983827,
        "meta_mean_motion_dot": 1.403e-05,
        "meta_mean_motion_ddot": 0,
        "tle_line1": "1 36083U 97051VQ  25350.88173010  .00001403  00000+0  40984-3 0  9990",
        "tle_line2": "2 36083  86.3437  32.3703 0025669 208.6135 151.3659 14.43222397855098"
      },
      "geometry": {
        "type": "Point",
        "coordinates": [
          -158.84183712156255,
          68.88690010537528
        ]
      }
    },
    {
      "type": "Feature",
      "properties": {
        "norad_id": 36390,
        "name": "IRIDIUM 33 DEB",
        "group": "iridium-33-debris",
        "lat": 86.28181047251772,
        "lon": 22.230248304916383,
        "alt_km": 625.9838776374845,
        "timestamp": "2025-12-20T18:51:32.098702+00:00",
        "meta_object_name": "IRIDIUM 33 DEB",
        "meta_object_id": "1997-051VU",
        "meta_epoch": "2025-12-18T02:53:50.749728",
        "meta_mean_motion": 14.73679499,
        "meta_eccentricity": 0.00315796,
        "meta_inclination": 86.2911,
        "meta_ra_of_asc_node": 296.9257,
        "meta_arg_of_pericenter": 143.7695,
        "meta_mean_anomaly": 216.5671,
        "meta_ephemeris_type": 0,
        "meta_classification_type": "U",
        "meta_norad_cat_id": 36390,
        "meta_element_set_no": 999,
        "meta_rev_at_epoch": 66341,
        "meta_bstar": 0.00081895703,
        "meta_mean_motion_dot": 5.409e-05,
        "meta_mean_motion_ddot": 0,
        "tle_line1": "1 36390U 97051VU  25352.12072627  .00005409  00000+0  81896-3 0  9999",
        "tle_line2": "2 36390  86.2911 296.9257 0031579 143.7695 216.5671 14.73679499663417"
      },
      "geometry": {
        "type": "Point",
        "coordinates": [
          22.230248304916383,
          86.28181047251772
        ]
      }
    },
    {
      "type": "Feature",
      "properties": {
        "norad_id": 36483,
        "name": "IRIDIUM 33 DEB",
        "group": "iridium-33-debris",
        "lat": -10.288061457678129,
        "lon": 48.3867646043747,
        "alt_km": 746.8029499183604,
        "timestamp": "2025-12-20T18:51:32.098713+00:00",
        "meta_object_name": "IRIDIUM 33 DEB",
        "meta_object_id": "1997-051VZ",
        "meta_epoch": "2025-12-19T21:18:48.499776",
        "meta_mean_motion": 14.45832941,
        "meta_eccentricity": 0.0011311,
        "meta_inclination": 86.3789,
        "meta_ra_of_asc_node": 49.4296,
        "meta_arg_of_pericenter": 106.3744,
        "meta_mean_anomaly": 253.8702,
        "meta_ephemeris_type": 0,
        "meta_classification_type": "U",
        "meta_norad_cat_id": 36483,
        "meta_element_set_no": 999,
        "meta_rev_at_epoch": 65249,
        "meta_bstar": 0.00032658,
        "meta_mean_motion_dot": 1.179e-05,
        "meta_mean_motion_ddot": 0,
        "tle_line1": "1 36483U 97051VZ  25353.88806134  .00001179  00000+0  32658-3 0  9996",
        "tle_line2": "2 36483  86.3789  49.4296 0011311 106.3744 253.8702 14.45832941652497"
      },
      "geometry": {
        "type": "Point",
        "coordinates": [
          48.3867646043747,
          -10.288061457678129
        ]
      }
    },
    {
      "type": "Feature",
      "properties": {
        "norad_id": 36490,
        "name": "IRIDIUM 33 DEB",
        "group": "iridium-33-debris",
        "lat": 47.446301181433164,
        "lon": 10.80445716298715,
        "alt_km": 633.2681283938364,
        "timestamp": "2025-12-20T18:51:32.098723+00:00",
        "meta_object_name": "IRIDIUM 33 DEB",
        "meta_object_id": "1997-051WG",
        "meta_epoch": "2025-12-20T07:15:26.522784",
        "meta_mean_motion": 14.76337462,
        "meta_eccentricity": 0.00052548,
        "meta_inclination": 86.3651,
        "meta_ra_of_asc_node": 7.052,
        "meta_arg_of_pericenter": 66.8318,
        "meta_mean_anomaly": 293.3454,
        "meta_ephemeris_type": 0,
        "meta_classification_type": "U",
        "meta_norad_cat_id": 36490,
        "meta_element_set_no": 999,
        "meta_rev_at_epoch": 86596,
        "meta_bstar": 0.0010301376,
        "meta_mean_motion_dot": 7.173e-05,
        "meta_mean_motion_ddot": 0,
        "tle_line1": "1 36490U 97051WG  25354.30239031  .00007173  00000+0  10301-2 0  9998",
        "tle_line2": "2 36490  86.3651   7.0520 0005254  66.8318 293.3454 14.76337462865962"
      },
      "geometry": {
        "type": "Point",
        "coordinates": [
          10.80445716298715,
          47.446301181433164
        ]
      }
    },
    {
      "type": "Feature",
      "properties": {
        "norad_id": 36493,
        "name": "IRIDIUM 33 DEB",
        "group": "iridium-33-debris",
        "lat": 12.29070648303844,
        "lon": 8.900281504418931,
        "alt_km": 672.0665369018816,
        "timestamp": "2025-12-20T18:51:32.098733+00:00",
        "meta_object_name": "IRIDIUM 33 DEB",
        "meta_object_id": "1997-051WK",
        "meta_epoch": "2025-12-20T07:19:49.672128",
        "meta_mean_motion": 14.65320442,
        "meta_eccentricity": 0.00093315,
        "meta_inclination": 86.3566,
        "meta_ra_of_asc_node": 8.3183,
        "meta_arg_of_pericenter": 338.064,
        "meta_mean_anomaly": 22.0172,
        "meta_ephemeris_type": 0,
        "meta_classification_type": "U",
        "meta_norad_cat_id": 36493,
        "meta_element_set_no": 999,
        "meta_rev_at_epoch": 74629,
        "meta_bstar": 0.0008112231,
        "meta_mean_motion_dot": 4.401e-05,
        "meta_mean_motion_ddot": 0,
        "tle_line1": "1 36493U 97051WK  25354.30543602  .00004401  00000+0  81122-3 0  9994",
        "tle_line2": "2 36493  86.3566   8.3183 0009331 338.0640  22.0172 14.65320442746297"
      },
      "geometry": {
        "type": "Point",
        "coordinates": [
          8.900281504418931,
          12.29070648303844
        ]
      }
    },
    {
      "type": "Feature",
      "properties": {
        "norad_id": 37548,
        "name": "IRIDIUM 33 DEB",
        "group": "iridium-33-debris",
        "lat": 23.933158905441285,
        "lon": -141.75433884302615,
        "alt_km": 702.5356657871143,
        "timestamp": "2025-12-20T18:51:32.098743+00:00",
        "meta_object_name": "IRIDIUM 33 DEB",
        "meta_object_id": "1997-051XH",
        "meta_epoch": "2025-12-15T20:39:30.861504",
        "meta_mean_motion": 14.51326297,
        "meta_eccentricity": 0.00258157,
        "meta_inclination": 86.3522,
        "meta_ra_of_asc_node": 42.0105,
        "meta_arg_of_pericenter": 178.4192,
        "meta_mean_anomaly": 181.71,
        "meta_ephemeris_type": 0,
        "meta_classification_type": "U",
        "meta_norad_cat_id": 37548,
        "meta_element_set_no": 999,
        "meta_rev_at_epoch": 65577,
        "meta_bstar": 0.00067405053,
        "meta_mean_motion_dot": 2.715e-05,
        "meta_mean_motion_ddot": 0,
        "tle_line1": "1 37548U 97051XH  25349.86077386  .00002715  00000+0  67405-3 0  9996",
        "tle_line2": "2 37548  86.3522  42.0105 0025815 178.4192 181.7100 14.51326297655778"
      },
      "geometry": {
        "type": "Point",
        "coordinates": [
          -141.75433884302615,
          23.933158905441285
        ]
      }
    },
    {
      "type": "Feature",
      "properties": {
        "norad_id": 37550,
        "name": "IRIDIUM 33 DEB",
        "group": "iridium-33-debris",
        "lat": -67.14960652213371,
        "lon": 11.661873571029789,
        "alt_km": 680.7216310242084,
        "timestamp": "2025-12-20T18:51:32.098754+00:00",
        "meta_object_name": "IRIDIUM 33 DEB",
        "meta_object_id": "1997-051XK",
        "meta_epoch": "2025-12-19T08:47:41.172864",
        "meta_mean_motion": 14.67293181,
        "meta_eccentricity": 0.0005615,
        "meta_inclination": 86.3772,
        "meta_ra_of_asc_node": 20.938,
        "meta_arg_of_pericenter": 96.5697,
        "meta_mean_anomaly": 263.6157,
        "meta_ephemeris_type": 0,
        "meta_classification_type": "U",
        "meta_norad_cat_id": 37550,
        "meta_element_set_no": 999,
        "meta_rev_at_epoch": 86430,
        "meta_bstar": 0.00085807,
        "meta_mean_motion_dot": 4.861e-05,
        "meta_mean_motion_ddot": 0,
        "tle_line1": "1 37550U 97051XK  25353.36644876  .00004861  00000+0  85807-3 0  9993",
        "tle_line2": "2 37550  86.3772  20.9380 0005615  96.5697 263.6157 14.67293181864309"
      },
      "geometry": {
        "type": "Point",
        "coordinates": [
          11.661873571029789,
          -67.14960652213371
        ]
      }
    }
  ]
}